[{"OBJECT_NAME":"STRAND-1","OBJECT_ID":"2013-009E","EPOCH":"2026-03-09T21:53:59.161920","MEAN_MOTION":14.37095119,"ECCENTRICITY":0.00090423,"INCLINATION":98.3888,"RA_OF_ASC_NODE":251.5986,"ARG_OF_PERICENTER":161.0822,"MEAN_ANOMALY":199.0703,"EPHEMERIS_TYPE":0,"CLASSIFICATION_TYPE":"U","NORAD_CAT_ID":39090,"ELEMENT_SET_NO":999,"REV_AT_EPOCH":68280,"BSTAR":0.00017106883,"MEAN_MOTION_DOT":4.66e-6,"MEAN_MOTION_DDOT":0},{"OBJECT_NAME":"CZ-6A DEB","OBJECT_ID":"2022-151ADM","EPOCH":"2026-03-09T20:03:34.066944","MEAN_MOTION":13.95000667,"ECCENTRICITY":0.02029847,"INCLINATION":98.9025,"RA_OF_ASC_NODE":36.649,"ARG_OF_PERICENTER":321.7213,"MEAN_ANOMALY":36.9684,"EPHEMERIS_TYPE":0,"CLASSIFICATION_TYPE":"U","NORAD_CAT_ID":56589,"ELEMENT_SET_NO":999,"REV_AT_EPOCH":15075,"BSTAR":0.0028748062,"MEAN_MOTION_DOT":4.553e-5,"MEAN_MOTION_DDOT":0}]
